CZ-2C R/B               
1 54039U 22132E   25359.92543680  .00034040  00000+0  49156-3 0  9990
2 54039  97.2950 356.3832 0021053  12.1567 348.0192 15.55626416178888
GSLV R/B                
1 54149U 22138AN  25359.56350057  .00002812  00000+0  24569-3 0  9995
2 54149  87.3821 191.1788 0024011  63.5918 296.7774 14.96194196172843
XRISM                   
1 57800U 23137A   25359.52262012  .00006529  00000+0  38124-3 0  9992
2 57800  31.0031  43.0059 0007622  13.7747 346.3098 15.10467063126563
ACS3                    
1 59588U 24077B   25359.89465238  .00024704  00000+0  20948-1 0  9994
2 59588  97.2594 312.5617 0074234 305.7641  53.6633 13.86089099 83969
SZ-21 MODULE            
1 66515U 25246C   25359.19228706  .00029146  00000+0  31272-3 0  9990
2 66515  41.4767 300.0489 0004589 327.9877  32.0683 15.63137537  6398
