CCSDS_OMM_VERS = 2.0
CREATION_DATE  = 
ORIGINATOR     = 

OBJECT_NAME    = CZ-2C R/B
OBJECT_ID      = 2022-132E
CENTER_NAME    = EARTH
REF_FRAME      = TEME
TIME_SYSTEM    = UTC
MEAN_ELEMENT_THEORY = SGP/SGP4

EPOCH          = 2025-12-25T22:12:37.739520
MEAN_MOTION    = 15.55626416
ECCENTRICITY   = .00210534
INCLINATION    = 97.2950
RA_OF_ASC_NODE = 356.3832
ARG_OF_PERICENTER = 12.1567
MEAN_ANOMALY   = 348.0192

EPHEMERIS_TYPE = 0
CLASSIFICATION_TYPE = U
NORAD_CAT_ID   = 54039
ELEMENT_SET_NO = 999
REV_AT_EPOCH   = 17888
BSTAR          = .49156003E-3
MEAN_MOTION_DOT = .3404E-3
MEAN_MOTION_DDOT = 0

CCSDS_OMM_VERS = 2.0
CREATION_DATE  = 
ORIGINATOR     = 

OBJECT_NAME    = GSLV R/B
OBJECT_ID      = 2022-138AN
CENTER_NAME    = EARTH
REF_FRAME      = TEME
TIME_SYSTEM    = UTC
MEAN_ELEMENT_THEORY = SGP/SGP4

EPOCH          = 2025-12-25T13:31:26.449248
MEAN_MOTION    = 14.96194196
ECCENTRICITY   = .0024011
INCLINATION    = 87.3821
RA_OF_ASC_NODE = 191.1788
ARG_OF_PERICENTER = 63.5918
MEAN_ANOMALY   = 296.7774

EPHEMERIS_TYPE = 0
CLASSIFICATION_TYPE = U
NORAD_CAT_ID   = 54149
ELEMENT_SET_NO = 999
REV_AT_EPOCH   = 17284
BSTAR          = .24569E-3
MEAN_MOTION_DOT = .2812E-4
MEAN_MOTION_DDOT = 0

CCSDS_OMM_VERS = 2.0
CREATION_DATE  = 
ORIGINATOR     = 

OBJECT_NAME    = XRISM
OBJECT_ID      = 2023-137A
CENTER_NAME    = EARTH
REF_FRAME      = TEME
TIME_SYSTEM    = UTC
MEAN_ELEMENT_THEORY = SGP/SGP4

EPOCH          = 2025-12-25T12:32:34.378368
MEAN_MOTION    = 15.10467063
ECCENTRICITY   = .0007622
INCLINATION    = 31.0031
RA_OF_ASC_NODE = 43.0059
ARG_OF_PERICENTER = 13.7747
MEAN_ANOMALY   = 346.3098

EPHEMERIS_TYPE = 0
CLASSIFICATION_TYPE = U
NORAD_CAT_ID   = 57800
ELEMENT_SET_NO = 999
REV_AT_EPOCH   = 12656
BSTAR          = .38124E-3
MEAN_MOTION_DOT = .6529E-4
MEAN_MOTION_DDOT = 0

CCSDS_OMM_VERS = 2.0
CREATION_DATE  = 
ORIGINATOR     = 

OBJECT_NAME    = ACS3
OBJECT_ID      = 2024-077B
CENTER_NAME    = EARTH
REF_FRAME      = TEME
TIME_SYSTEM    = UTC
MEAN_ELEMENT_THEORY = SGP/SGP4

EPOCH          = 2025-12-25T21:28:17.965632
MEAN_MOTION    = 13.86089099
ECCENTRICITY   = .00742347
INCLINATION    = 97.2594
RA_OF_ASC_NODE = 312.5617
ARG_OF_PERICENTER = 305.7641
MEAN_ANOMALY   = 53.6633

EPHEMERIS_TYPE = 0
CLASSIFICATION_TYPE = U
NORAD_CAT_ID   = 59588
ELEMENT_SET_NO = 999
REV_AT_EPOCH   = 8396
BSTAR          = .20947861E-1
MEAN_MOTION_DOT = .24704E-3
MEAN_MOTION_DDOT = 0

CCSDS_OMM_VERS = 2.0
CREATION_DATE  = 
ORIGINATOR     = 

OBJECT_NAME    = SZ-21 MODULE
OBJECT_ID      = 2025-246C
CENTER_NAME    = EARTH
REF_FRAME      = TEME
TIME_SYSTEM    = UTC
MEAN_ELEMENT_THEORY = SGP/SGP4

EPOCH          = 2025-12-25T04:36:53.601984
MEAN_MOTION    = 15.63137537
ECCENTRICITY   = .0004589
INCLINATION    = 41.4767
RA_OF_ASC_NODE = 300.0489
ARG_OF_PERICENTER = 327.9877
MEAN_ANOMALY   = 32.0683

EPHEMERIS_TYPE = 0
CLASSIFICATION_TYPE = U
NORAD_CAT_ID   = 66515
ELEMENT_SET_NO = 999
REV_AT_EPOCH   = 639
BSTAR          = .31272E-3
MEAN_MOTION_DOT = .29146E-3
MEAN_MOTION_DDOT = 0

